{"type": "FeatureCollection", "features": [ {"type": "Feature", "properties": {"norad_id": 66656, "name": "2025-274G", "group": "last-30-days", "lat": -16.92165639539229, "lon": -71.03318470610215, "alt_km": 601.7888690835807, "timestamp": "2025-12-25T14:48:23.568875+00:00", "meta": {"OBJECT_NAME": "2025-274G", "OBJECT_ID": "2025-274G", "EPOCH": "2025-12-25T06:50:13.407360", "MEAN_MOTION": 14.92345939, "ECCENTRICITY": 0.00129364, "INCLINATION": 97.7403, "RA_OF_ASC_NODE": 286.2689, "ARG_OF_PERICENTER": 210.471, "MEAN_ANOMALY": 149.5759, "EPHEMERIS_TYPE": 0, "CLASSIFICATION_TYPE": "U", "NORAD_CAT_ID": 66656, "ELEMENT_SET_NO": 999, "REV_AT_EPOCH": 427, "BSTAR": 0.00035306058, "MEAN_MOTION_DOT": 3.559e-05, "MEAN_MOTION_DDOT": 0}, "tle": {"line1": "1 66656U 25274G   25359.28487740  .00003559  00000+0  35306-3 0  9994", "line2": "2 66656  97.7403 286.2689 0012936 210.4710 149.5759 14.92345939  4270"}}, "geometry": {"type": "Point", "coordinates": [-71.03318470610215, -16.92165639539229]}}, {"type": "Feature", "properties": {"norad_id": 66657, "name": "SPIRONE", "group": "last-30-days", "lat": 1.4967873523062238, "lon": -73.60137899023606, "alt_km": 598.2346401923542, "timestamp": "2025-12-25T14:48:23.568883+00:00", "meta": {"OBJECT_NAME": "SPIRONE", "OBJECT_ID": "2025-274H", "EPOCH": "2025-12-24T17:52:57.460800", "MEAN_MOTION": 14.92519691, "ECCENTRICITY": 0.00109277, "INCLINATION": 97.74, "RA_OF_ASC_NODE": 285.7453, "ARG_OF_PERICENTER": 230.1139, "MEAN_ANOMALY": 129.912, "EPHEMERIS_TYPE": 0, "CLASSIFICATION_TYPE": "U", "NORAD_CAT_ID": 66657, "ELEMENT_SET_NO": 999, "REV_AT_EPOCH": 419, "BSTAR": 0.00033156122, "MEAN_MOTION_DOT": 3.352e-05, "MEAN_MOTION_DDOT": 0}, "tle": {"line1": "1 66657U 25274H   25358.74510950  .00003352  00000+0  33156-3 0  9997", "line2": "2 66657  97.7400 285.7453 0010927 230.1139 129.9120 14.92519691  4196"}}, "geometry": {"type": "Point", "coordinates": [-73.60137899023606, 1.4967873523062238]}}, {"type": "Feature", "properties": {"norad_id": 66658, "name": "2025-274J", "group": "last-30-days", "lat": 19.306636767007824, "lon": -76.12065570376645, "alt_km": 596.5954556413053, "timestamp": "2025-12-25T14:48:23.568895+00:00", "meta": {"OBJECT_NAME": "2025-274J", "OBJECT_ID": "2025-274J", "EPOCH": "2025-12-25T01:50:55.691808", "MEAN_MOTION": 14.92701249, "ECCENTRICITY": 0.00114672, "INCLINATION": 97.7399, "RA_OF_ASC_NODE": 286.0795, "ARG_OF_PERICENTER": 232.0814, "MEAN_ANOMALY": 127.937, "EPHEMERIS_TYPE": 0, "CLASSIFICATION_TYPE": "U", "NORAD_CAT_ID": 66658, "ELEMENT_SET_NO": 999, "REV_AT_EPOCH": 424, "BSTAR": 0.00048847755, "MEAN_MOTION_DOT": 4.99e-05, "MEAN_MOTION_DDOT": 0}, "tle": {"line1": "1 66658U 25274J   25359.07703347  .00004990  00000+0  48848-3 0  9992", "line2": "2 66658  97.7399 286.0795 0011467 232.0814 127.9370 14.92701249  4241"}}, "geometry": {"type": "Point", "coordinates": [-76.12065570376645, 19.306636767007824]}}, {"type": "Feature", "properties": {"norad_id": 66659, "name": "JACK K", "group": "last-30-days", "lat": 38.241012701135034, "lon": -79.53424728686312, "alt_km": 594.4368791867428, "timestamp": "2025-12-25T14:48:23.568904+00:00", "meta": {"OBJECT_NAME": "JACK K", "OBJECT_ID": "2025-274K", "EPOCH": "2025-12-25T01:45:52.395840", "MEAN_MOTION": 14.92874399, "ECCENTRICITY": 0.00122016, "INCLINATION": 97.7402, "RA_OF_ASC_NODE": 286.0846, "ARG_OF_PERICENTER": 234.1016, "MEAN_ANOMALY": 125.9071, "EPHEMERIS_TYPE": 0, "CLASSIFICATION_TYPE": "U", "NORAD_CAT_ID": 66659, "ELEMENT_SET_NO": 999, "REV_AT_EPOCH": 424, "BSTAR": 0.00031177565, "MEAN_MOTION_DOT": 3.178e-05, "MEAN_MOTION_DDOT": 0}, "tle": {"line1": "1 66659U 25274K   25359.07352310  .00003178  00000+0  31178-3 0  9998", "line2": "2 66659  97.7402 286.0846 0012201 234.1016 125.9071 14.92874399  4241"}}, "geometry": {"type": "Point", "coordinates": [-79.53424728686312, 38.241012701135034]}}, {"type": "Feature", "properties": {"norad_id": 66660, "name": "K-HERO", "group": "last-30-days", "lat": 53.55719100799213, "lon": -83.98731454878568, "alt_km": 592.4250159157, "timestamp": "2025-12-25T14:48:23.568913+00:00", "meta": {"OBJECT_NAME": "K-HERO", "OBJECT_ID": "2025-274L", "EPOCH": "2025-12-25T04:54:46.579392", "MEAN_MOTION": 14.93026375, "ECCENTRICITY": 0.00128393, "INCLINATION": 97.7404, "RA_OF_ASC_NODE": 286.2216, "ARG_OF_PERICENTER": 234.4048, "MEAN_ANOMALY": 125.5976, "EPHEMERIS_TYPE": 0, "CLASSIFICATION_TYPE": "U", "NORAD_CAT_ID": 66660, "ELEMENT_SET_NO": 999, "REV_AT_EPOCH": 426, "BSTAR": 0.00030039085, "MEAN_MOTION_DOT": 3.072e-05, "MEAN_MOTION_DDOT": 0}, "tle": {"line1": "1 66660U 25274L   25359.20470578  .00003072  00000+0  30039-3 0  9990", "line2": "2 66660  97.7404 286.2216 0012839 234.4048 125.5976 14.93026375  4269"}}, "geometry": {"type": "Point", "coordinates": [-83.98731454878568, 53.55719100799213]}}, {"type": "Feature", "properties": {"norad_id": 66661, "name": "SNUGLITE-III", "group": "last-30-days", "lat": 67.78375499817962, "lon": -92.81978025788975, "alt_km": 590.570274812103, "timestamp": "2025-12-25T14:48:23.568921+00:00", "meta": {"OBJECT_NAME": "SNUGLITE-III", "OBJECT_ID": "2025-274M", "EPOCH": "2025-12-25T06:27:20.808576", "MEAN_MOTION": 14.93158586, "ECCENTRICITY": 0.00134565, "INCLINATION": 97.7403, "RA_OF_ASC_NODE": 286.2902, "ARG_OF_PERICENTER": 235.6282, "MEAN_ANOMALY": 124.3666, "EPHEMERIS_TYPE": 0, "CLASSIFICATION_TYPE": "U", "NORAD_CAT_ID": 66661, "ELEMENT_SET_NO": 999, "REV_AT_EPOCH": 427, "BSTAR": 0.00026615661, "MEAN_MOTION_DOT": 2.725e-05, "MEAN_MOTION_DDOT": 0}, "tle": {"line1": "1 66661U 25274M   25359.26899084  .00002725  00000+0  26616-3 0  9994", "line2": "2 66661  97.7403 286.2902 0013456 235.6282 124.3666 14.93158586  4274"}}, "geometry": {"type": "Point", "coordinates": [-92.81978025788975, 67.78375499817962]}}, {"type": "Feature", "properties": {"norad_id": 66662, "name": "2025-274N", "group": "last-30-days", "lat": 73.16106126107489, "lon": -100.06952646600135, "alt_km": 589.9577464827144, "timestamp": "2025-12-25T14:48:23.568930+00:00", "meta": {"OBJECT_NAME": "2025-274N", "OBJECT_ID": "2025-274N", "EPOCH": "2025-12-25T06:25:47.063712", "MEAN_MOTION": 14.93214858, "ECCENTRICITY": 0.0013898, "INCLINATION": 97.7403, "RA_OF_ASC_NODE": 286.292, "ARG_OF_PERICENTER": 235.4251, "MEAN_ANOMALY": 124.5657, "EPHEMERIS_TYPE": 0, "CLASSIFICATION_TYPE": "U", "NORAD_CAT_ID": 66662, "ELEMENT_SET_NO": 999, "REV_AT_EPOCH": 427, "BSTAR": 0.00027930725, "MEAN_MOTION_DOT": 2.867e-05, "MEAN_MOTION_DDOT": 0}, "tle": {"line1": "1 66662U 25274N   25359.26790583  .00002867  00000+0  27931-3 0  9997", "line2": "2 66662  97.7403 286.2920 0013898 235.4251 124.5657 14.93214858  4276"}}, "geometry": {"type": "Point", "coordinates": [-100.06952646600135, 73.16106126107489]}}, {"type": "Feature", "properties": {"norad_id": 66663, "name": "KSLV-II R/B", "group": "last-30-days", "lat": 25.78459304907136, "lon": 110.61114009940367, "alt_km": 594.8054286140268, "timestamp": "2025-12-25T14:48:23.568939+00:00", "meta": {"OBJECT_NAME": "KSLV-II R/B", "OBJECT_ID": "2025-274P", "EPOCH": "2025-12-23T05:59:25.426176", "MEAN_MOTION": 14.97536982, "ECCENTRICITY": 0.00600006, "INCLINATION": 97.7435, "RA_OF_ASC_NODE": 284.4956, "ARG_OF_PERICENTER": 282.7951, "MEAN_ANOMALY": 76.657, "EPHEMERIS_TYPE": 0, "CLASSIFICATION_TYPE": "U", "NORAD_CAT_ID": 66663, "ELEMENT_SET_NO": 999, "REV_AT_EPOCH": 398, "BSTAR": 0.0011394408, "MEAN_MOTION_DOT": 0.00013749, "MEAN_MOTION_DDOT": 0}, "tle": {"line1": "1 66663U 25274P   25357.24959984  .00013749  00000+0  11394-2 0  9992", "line2": "2 66663  97.7435 284.4956 0060000 282.7951  76.6570 14.97536982  3987"}}, "geometry": {"type": "Point", "coordinates": [110.61114009940367, 25.78459304907136]}}, {"type": "Feature", "properties": {"norad_id": 66664, "name": "SOYUZ-MS 28", "group": "last-30-days", "lat": -51.22933184020321, "lon": -1.8375419274626543, "alt_km": 419.8919419686272, "timestamp": "2025-12-25T14:48:23.568948+00:00", "meta": {"OBJECT_NAME": "SOYUZ-MS 28", "OBJECT_ID": "2025-275A", "EPOCH": "2025-12-25T05:52:58.411200", "MEAN_MOTION": 15.49803499, "ECCENTRICITY": 0.00032029, "INCLINATION": 51.6316, "RA_OF_ASC_NODE": 80.5467, "ARG_OF_PERICENTER": 298.8467, "MEAN_ANOMALY": 61.22, "EPHEMERIS_TYPE": 0, "CLASSIFICATION_TYPE": "U", "NORAD_CAT_ID": 66664, "ELEMENT_SET_NO": 999, "REV_AT_EPOCH": 128, "BSTAR": 0.00025322562, "MEAN_MOTION_DOT": 0.00013923, "MEAN_MOTION_DDOT": 0}, "tle": {"line1": "1 66664U 25275A   25359.24512050  .00013923  00000+0  25323-3 0  9997", "line2": "2 66664  51.6316  80.5467 0003202 298.8467  61.2200 15.49803499  1287"}}, "geometry": {"type": "Point", "coordinates": [-1.8375419274626543, -51.22933184020321]}}, {"type": "Feature", "properties": {"norad_id": 66666, "name": "FORMOSAT-8A", "group": "last-30-days", "lat": -82.33660926814441, "lon": 160.5876858984947, "alt_km": 572.911938778494, "timestamp": "2025-12-25T14:48:23.568964+00:00", "meta": {"OBJECT_NAME": "FORMOSAT-8A", "OBJECT_ID": "2025-276A", "EPOCH": "2025-12-25T05:36:11.840832", "MEAN_MOTION": 15.00360482, "ECCENTRICITY": 0.00040264, "INCLINATION": 97.6575, "RA_OF_ASC_NODE": 70.9908, "ARG_OF_PERICENTER": 185.9742, "MEAN_ANOMALY": 174.1434, "EPHEMERIS_TYPE": 0, "CLASSIFICATION_TYPE": "U", "NORAD_CAT_ID": 66666, "ELEMENT_SET_NO": 999, "REV_AT_EPOCH": 396, "BSTAR": 0.00039429059, "MEAN_MOTION_DOT": 4.892e-05, "MEAN_MOTION_DDOT": 0}, "tle": {"line1": "1 66666U 25276A   25359.23347038  .00004892  00000+0  39429-3 0  9998", "line2": "2 66666  97.6575  70.9908 0004026 185.9742 174.1434 15.00360482  3963"}}, "geometry": {"type": "Point", "coordinates": [160.5876858984947, -82.33660926814441]}}]}